MTI                     
1 26102U 00014A   22044.54133359  .00081750  00000+0  58710-3 0  9995
2 26102  97.4627 330.3445 0007331 116.6759 243.5302 15.73365453219068
CFESAT                  
1 30777U 07006F   22044.32539898  .00033500  00000+0  67549-3 0  9990
2 30777  35.4240  27.3282 0005106 286.7318  73.2851 15.45542236829894
SPIRALE A               
1 33751U 09008C   22044.37924689  .00000084  00000+0  51065-3 0  9997
2 33751   2.0786  12.0979 5411231  12.8935 356.7203  4.58822201189115
SPIRALE B               
1 33752U 09008D   22044.11245077  .00002222  00000+0  79684-3 0  9990
2 33752   1.7931 189.2731 6869613  10.5227 358.4028  2.79952253121581
SAPPHIRE                
1 39088U 13009C   22044.52037176  .00000066  00000+0  38653-4 0  9994
2 39088  98.4314 243.3418 0010291 287.1326  72.8732 14.34268311469355
